ORBCOMM FM24 [-]        
1 25478U 98053D   23340.14972729  .00001210  00000+0  47044-3 0  9999
2 25478  45.0098  32.7839 0002884 267.7000  92.3517 14.34981691317060
ORBCOMM FM25 [-]        
1 25479U 98053E   23340.18381032  .00001448  00000+0  55329-3 0  9993
2 25479  45.0090  30.8595 0004589 300.5429  59.4965 14.34969106317367
ORBCOMM FM26 [-]        
1 25480U 98053F   23340.13537107  .00001104  00000+0  43729-3 0  9996
2 25480  45.0083  24.6087 0005688 329.3706  30.6809 14.34509302317306
ORBCOMM FM27 [+]        
1 25481U 98053G   23340.58723533  .00001037  00000+0  41046-3 0  9991
2 25481  45.0070  29.2148 0001922 237.7945 122.2716 14.34943827317394
ORBCOMM FM28 [-]        
1 25482U 98053H   23340.34537028  .00001240  00000+0  47642-3 0  9992
2 25482  45.0073 329.3743 0004402 349.2386  10.8367 14.35426953317983
ORBCOMM FM30 [-]        
1 25980U 99065A   23340.04276122  .00001118  00000+0  44142-3 0  9997
2 25980  45.0303 210.4242 0006253  84.9922 275.1639 14.34642546254087
ORBCOMM FM31 [-]        
1 25981U 99065B   23340.07911930  .00001070  00000+0  42435-3 0  9994
2 25981  45.0226 204.0683 0003243 104.9986 255.1220 14.34659074253648
ORBCOMM FM32 [+]        
1 25982U 99065C   23340.08712968  .00001089  00000+0  43995-3 0  9998
2 25982  45.0156 216.6916 0005356 107.3952 252.7481 14.33604789254292
